{
  "type": "FeatureCollection",
  "features": [
    {
      "type": "Feature",
      "properties": {
        "geoid": "06075061500",
        "name": "Mission District",
        "score": 82
      },
      "geometry": {
        "type": "Polygon",
        "coordinates": [[
          [-122.4220, 37.7480],
          [-122.4050, 37.7480],
          [-122.4050, 37.7680],
          [-122.4220, 37.7680],
          [-122.4220, 37.7480]
        ]]
      }
    },
    {
      "type": "Feature",
      "properties": {
        "geoid": "06075010100",
        "name": "Castro",
        "score": 88
      },
      "geometry": {
        "type": "Polygon",
        "coordinates": [[
          [-122.4450, 37.7580],
          [-122.4320, 37.7580],
          [-122.4320, 37.7720],
          [-122.4450, 37.7720],
          [-122.4450, 37.7580]
        ]]
      }
    },
    {
      "type": "Feature",
      "properties": {
        "geoid": "06075012800",
        "name": "Noe Valley",
        "score": 91
      },
      "geometry": {
        "type": "Polygon",
        "coordinates": [[
          [-122.4450, 37.7380],
          [-122.4280, 37.7380],
          [-122.4280, 37.7520],
          [-122.4450, 37.7520],
          [-122.4450, 37.7380]
        ]]
      }
    },
    {
      "type": "Feature",
      "properties": {
        "geoid": "06075020300",
        "name": "Haight-Ashbury",
        "score": 79
      },
      "geometry": {
        "type": "Polygon",
        "coordinates": [[
          [-122.4550, 37.7650],
          [-122.4400, 37.7650],
          [-122.4400, 37.7780],
          [-122.4550, 37.7780],
          [-122.4550, 37.7650]
        ]]
      }
    },
    {
      "type": "Feature",
      "properties": {
        "geoid": "06075030200",
        "name": "SOMA",
        "score": 75
      },
      "geometry": {
        "type": "Polygon",
        "coordinates": [[
          [-122.4100, 37.7720],
          [-122.3900, 37.7720],
          [-122.3900, 37.7900],
          [-122.4100, 37.7900],
          [-122.4100, 37.7720]
        ]]
      }
    },
    {
      "type": "Feature",
      "properties": {
        "geoid": "06075040100",
        "name": "North Beach",
        "score": 86
      },
      "geometry": {
        "type": "Polygon",
        "coordinates": [[
          [-122.4150, 37.7980],
          [-122.4020, 37.7980],
          [-122.4020, 37.8080],
          [-122.4150, 37.8080],
          [-122.4150, 37.7980]
        ]]
      }
    },
    {
      "type": "Feature",
      "properties": {
        "geoid": "06075050200",
        "name": "Pacific Heights",
        "score": 93
      },
      "geometry": {
        "type": "Polygon",
        "coordinates": [[
          [-122.4500, 37.7850],
          [-122.4300, 37.7850],
          [-122.4300, 37.7980],
          [-122.4500, 37.7980],
          [-122.4500, 37.7850]
        ]]
      }
    },
    {
      "type": "Feature",
      "properties": {
        "geoid": "06075060300",
        "name": "Richmond",
        "score": 84
      },
      "geometry": {
        "type": "Polygon",
        "coordinates": [[
          [-122.4950, 37.7750],
          [-122.4550, 37.7750],
          [-122.4550, 37.7900],
          [-122.4950, 37.7900],
          [-122.4950, 37.7750]
        ]]
      }
    }
  ]
}
